CCSDS_OMM_VERS = 2.0
CREATION_DATE  = 
ORIGINATOR     = 

OBJECT_NAME    = STARLINK-35774
OBJECT_ID      = 2025-247U
CENTER_NAME    = EARTH
REF_FRAME      = TEME
TIME_SYSTEM    = UTC
MEAN_ELEMENT_THEORY = SGP/SGP4

EPOCH          = 2025-11-26T10:00:01.998720
MEAN_MOTION    = 15.43806673
ECCENTRICITY   = .0001497
INCLINATION    = 53.1597
RA_OF_ASC_NODE = 314.1614
ARG_OF_PERICENTER = 69.5366
MEAN_ANOMALY   = 138.5562

EPHEMERIS_TYPE = 0
CLASSIFICATION_TYPE = U
NORAD_CAT_ID   = 66283
ELEMENT_SET_NO = 999
REV_AT_EPOCH   = 499
BSTAR          = -.48507E-1
MEAN_MOTION_DOT = -.1990803E-1
MEAN_MOTION_DDOT = 0

CCSDS_OMM_VERS = 2.0
CREATION_DATE  = 
ORIGINATOR     = 

OBJECT_NAME    = STARLINK-35830
OBJECT_ID      = 2025-247V
CENTER_NAME    = EARTH
REF_FRAME      = TEME
TIME_SYSTEM    = UTC
MEAN_ELEMENT_THEORY = SGP/SGP4

EPOCH          = 2025-11-26T10:00:01.998720
MEAN_MOTION    = 15.43800281
ECCENTRICITY   = .0001524
INCLINATION    = 53.1593
RA_OF_ASC_NODE = 314.1572
ARG_OF_PERICENTER = 69.7633
MEAN_ANOMALY   = 140.2145

EPHEMERIS_TYPE = 0
CLASSIFICATION_TYPE = U
NORAD_CAT_ID   = 66284
ELEMENT_SET_NO = 999
REV_AT_EPOCH   = 499
BSTAR          = -.48423E-1
MEAN_MOTION_DOT = -.1987357E-1
MEAN_MOTION_DDOT = 0

CCSDS_OMM_VERS = 2.0
CREATION_DATE  = 
ORIGINATOR     = 

OBJECT_NAME    = STARLINK-35819
OBJECT_ID      = 2025-247W
CENTER_NAME    = EARTH
REF_FRAME      = TEME
TIME_SYSTEM    = UTC
MEAN_ELEMENT_THEORY = SGP/SGP4

EPOCH          = 2025-11-26T12:08:50.850240
MEAN_MOTION    = 15.46267400
ECCENTRICITY   = .0024365
INCLINATION    = 53.1592
RA_OF_ASC_NODE = 313.7065
ARG_OF_PERICENTER = 31.6761
MEAN_ANOMALY   = 328.5707

EPHEMERIS_TYPE = 0
CLASSIFICATION_TYPE = U
NORAD_CAT_ID   = 66285
ELEMENT_SET_NO = 999
REV_AT_EPOCH   = 519
BSTAR          = -.39749E-1
MEAN_MOTION_DOT = -.1794811E-1
MEAN_MOTION_DDOT = 0

CCSDS_OMM_VERS = 2.0
CREATION_DATE  = 
ORIGINATOR     = 

OBJECT_NAME    = STARLINK-35783
OBJECT_ID      = 2025-247X
CENTER_NAME    = EARTH
REF_FRAME      = TEME
TIME_SYSTEM    = UTC
MEAN_ELEMENT_THEORY = SGP/SGP4

EPOCH          = 2025-11-26T05:56:16.733760
MEAN_MOTION    = 15.48562020
ECCENTRICITY   = .00007032
INCLINATION    = 53.1592
RA_OF_ASC_NODE = 314.9349
ARG_OF_PERICENTER = 53.1047
MEAN_ANOMALY   = 307.0026

EPHEMERIS_TYPE = 0
CLASSIFICATION_TYPE = U
NORAD_CAT_ID   = 66286
ELEMENT_SET_NO = 999
REV_AT_EPOCH   = 515
BSTAR          = -.58352516E-3
MEAN_MOTION_DOT = -.31927E-3
MEAN_MOTION_DDOT = 0

CCSDS_OMM_VERS = 2.0
CREATION_DATE  = 
ORIGINATOR     = 

OBJECT_NAME    = STARLINK-34884
OBJECT_ID      = 2025-247Y
CENTER_NAME    = EARTH
REF_FRAME      = TEME
TIME_SYSTEM    = UTC
MEAN_ELEMENT_THEORY = SGP/SGP4

EPOCH          = 2025-11-26T12:07:05.798208
MEAN_MOTION    = 15.49264449
ECCENTRICITY   = .0001091
INCLINATION    = 53.1594
RA_OF_ASC_NODE = 313.6978
ARG_OF_PERICENTER = 99.9553
MEAN_ANOMALY   = 260.1579

EPHEMERIS_TYPE = 0
CLASSIFICATION_TYPE = U
NORAD_CAT_ID   = 66287
ELEMENT_SET_NO = 999
REV_AT_EPOCH   = 519
BSTAR          = .27432E-3
MEAN_MOTION_DOT = .14814E-3
MEAN_MOTION_DDOT = 0

CCSDS_OMM_VERS = 2.0
CREATION_DATE  = 
ORIGINATOR     = 

OBJECT_NAME    = STARLINK-34896
OBJECT_ID      = 2025-247Z
CENTER_NAME    = EARTH
REF_FRAME      = TEME
TIME_SYSTEM    = UTC
MEAN_ELEMENT_THEORY = SGP/SGP4

EPOCH          = 2025-11-26T12:06:35.636832
MEAN_MOTION    = 15.49284370
ECCENTRICITY   = .0001429
INCLINATION    = 53.1594
RA_OF_ASC_NODE = 313.6959
ARG_OF_PERICENTER = 161.4833
MEAN_ANOMALY   = 198.6228

EPHEMERIS_TYPE = 0
CLASSIFICATION_TYPE = U
NORAD_CAT_ID   = 66288
ELEMENT_SET_NO = 999
REV_AT_EPOCH   = 519
BSTAR          = .57819E-3
MEAN_MOTION_DOT = .31812E-3
MEAN_MOTION_DDOT = 0

CCSDS_OMM_VERS = 2.0
CREATION_DATE  = 
ORIGINATOR     = 

OBJECT_NAME    = STARLINK-35802
OBJECT_ID      = 2025-247AA
CENTER_NAME    = EARTH
REF_FRAME      = TEME
TIME_SYSTEM    = UTC
MEAN_ELEMENT_THEORY = SGP/SGP4

EPOCH          = 2025-11-26T10:33:12.190752
MEAN_MOTION    = 15.49332274
ECCENTRICITY   = .0001546
INCLINATION    = 53.1594
RA_OF_ASC_NODE = 314.0017
ARG_OF_PERICENTER = 78.1131
MEAN_ANOMALY   = 282.0051

EPHEMERIS_TYPE = 0
CLASSIFICATION_TYPE = U
NORAD_CAT_ID   = 66289
ELEMENT_SET_NO = 999
REV_AT_EPOCH   = 518
BSTAR          = .98509E-3
MEAN_MOTION_DOT = .54769E-3
MEAN_MOTION_DDOT = 0

CCSDS_OMM_VERS = 2.0
CREATION_DATE  = 
ORIGINATOR     = 

OBJECT_NAME    = STARLINK-35799
OBJECT_ID      = 2025-247AB
CENTER_NAME    = EARTH
REF_FRAME      = TEME
TIME_SYSTEM    = UTC
MEAN_ELEMENT_THEORY = SGP/SGP4

EPOCH          = 2025-11-26T08:59:48.658272
MEAN_MOTION    = 15.49367369
ECCENTRICITY   = .00002806
INCLINATION    = 53.1602
RA_OF_ASC_NODE = 314.3078
ARG_OF_PERICENTER = 34.4635
MEAN_ANOMALY   = 325.6392

EPHEMERIS_TYPE = 0
CLASSIFICATION_TYPE = U
NORAD_CAT_ID   = 66290
ELEMENT_SET_NO = 999
REV_AT_EPOCH   = 522
BSTAR          = .14981515E-2
MEAN_MOTION_DOT = .83946E-3
MEAN_MOTION_DDOT = 0

CCSDS_OMM_VERS = 2.0
CREATION_DATE  = 
ORIGINATOR     = 

OBJECT_NAME    = STARLINK-35800
OBJECT_ID      = 2025-247AC
CENTER_NAME    = EARTH
REF_FRAME      = TEME
TIME_SYSTEM    = UTC
MEAN_ELEMENT_THEORY = SGP/SGP4

EPOCH          = 2025-11-26T10:31:43.101984
MEAN_MOTION    = 15.49350237
ECCENTRICITY   = .00013
INCLINATION    = 53.1593
RA_OF_ASC_NODE = 313.9942
ARG_OF_PERICENTER = 93.4445
MEAN_ANOMALY   = 266.6712

EPHEMERIS_TYPE = 0
CLASSIFICATION_TYPE = U
NORAD_CAT_ID   = 66291
ELEMENT_SET_NO = 999
REV_AT_EPOCH   = 523
BSTAR          = .1725E-2
MEAN_MOTION_DOT = .96828E-3
MEAN_MOTION_DDOT = 0

CCSDS_OMM_VERS = 2.0
CREATION_DATE  = 
ORIGINATOR     = 

OBJECT_NAME    = STARLINK-35798
OBJECT_ID      = 2025-247AD
CENTER_NAME    = EARTH
REF_FRAME      = TEME
TIME_SYSTEM    = UTC
MEAN_ELEMENT_THEORY = SGP/SGP4

EPOCH          = 2025-11-26T10:32:12.837408
MEAN_MOTION    = 15.49328746
ECCENTRICITY   = .0001292
INCLINATION    = 53.1595
RA_OF_ASC_NODE = 313.9965
ARG_OF_PERICENTER = 95.2073
MEAN_ANOMALY   = 264.9084

EPHEMERIS_TYPE = 0
CLASSIFICATION_TYPE = U
NORAD_CAT_ID   = 66292
ELEMENT_SET_NO = 999
REV_AT_EPOCH   = 518
BSTAR          = .10339E-2
MEAN_MOTION_DOT = .57519E-3
MEAN_MOTION_DDOT = 0

CCSDS_OMM_VERS = 2.0
CREATION_DATE  = 
ORIGINATOR     = 

OBJECT_NAME    = LVM3 R/B
OBJECT_ID      = 2025-249A
CENTER_NAME    = EARTH
REF_FRAME      = TEME
TIME_SYSTEM    = UTC
MEAN_ELEMENT_THEORY = SGP/SGP4

EPOCH          = 2025-11-25T22:31:58.534752
MEAN_MOTION    = 3.13793331
ECCENTRICITY   = .66718835
INCLINATION    = 21.3470
RA_OF_ASC_NODE = 147.1339
ARG_OF_PERICENTER = 202.4104
MEAN_ANOMALY   = 103.8819

EPHEMERIS_TYPE = 0
CLASSIFICATION_TYPE = U
NORAD_CAT_ID   = 66310
ELEMENT_SET_NO = 999
REV_AT_EPOCH   = 75
BSTAR          = .11757202E-2
MEAN_MOTION_DOT = .41702E-3
MEAN_MOTION_DDOT = .584055E-6

CCSDS_OMM_VERS = 2.0
CREATION_DATE  = 
ORIGINATOR     = 

OBJECT_NAME    = CMS-03 (GSAT-7R)
OBJECT_ID      = 2025-249B
CENTER_NAME    = EARTH
REF_FRAME      = TEME
TIME_SYSTEM    = UTC
MEAN_ELEMENT_THEORY = SGP/SGP4

EPOCH          = 2025-11-26T10:58:51.569184
MEAN_MOTION    = 1.00271318
ECCENTRICITY   = .0004472
INCLINATION    = 0.1828
RA_OF_ASC_NODE = 271.7154
ARG_OF_PERICENTER = 196.5121
MEAN_ANOMALY   = 215.6529

EPHEMERIS_TYPE = 0
CLASSIFICATION_TYPE = U
NORAD_CAT_ID   = 66311
ELEMENT_SET_NO = 999
REV_AT_EPOCH   = 32
BSTAR          = 0
MEAN_MOTION_DOT = -.239E-5
MEAN_MOTION_DDOT = 0

CCSDS_OMM_VERS = 2.0
CREATION_DATE  = 
ORIGINATOR     = 

OBJECT_NAME    = YAOGAN-46
OBJECT_ID      = 2025-250A
CENTER_NAME    = EARTH
REF_FRAME      = TEME
TIME_SYSTEM    = UTC
MEAN_ELEMENT_THEORY = SGP/SGP4

EPOCH          = 2025-11-19T17:03:07.460064
MEAN_MOTION    = 5.35115933
ECCENTRICITY   = .00492424
INCLINATION    = 20.0323
RA_OF_ASC_NODE = 106.9378
ARG_OF_PERICENTER = 131.7872
MEAN_ANOMALY   = 228.6447

EPHEMERIS_TYPE = 0
CLASSIFICATION_TYPE = U
NORAD_CAT_ID   = 66313
ELEMENT_SET_NO = 999
REV_AT_EPOCH   = 96
BSTAR          = 0
MEAN_MOTION_DOT = -.9E-7
MEAN_MOTION_DDOT = 0

CCSDS_OMM_VERS = 2.0
CREATION_DATE  = 
ORIGINATOR     = 

OBJECT_NAME    = SENTINEL-1D
OBJECT_ID      = 2025-251A
CENTER_NAME    = EARTH
REF_FRAME      = TEME
TIME_SYSTEM    = UTC
MEAN_ELEMENT_THEORY = SGP/SGP4

EPOCH          = 2025-11-25T22:17:03.828192
MEAN_MOTION    = 14.59751375
ECCENTRICITY   = .0001477
INCLINATION    = 98.1939
RA_OF_ASC_NODE = 335.1735
ARG_OF_PERICENTER = 179.8573
MEAN_ANOMALY   = 180.2628

EPHEMERIS_TYPE = 0
CLASSIFICATION_TYPE = U
NORAD_CAT_ID   = 66315
ELEMENT_SET_NO = 999
REV_AT_EPOCH   = 308
BSTAR          = .52376371E-4
MEAN_MOTION_DOT = .204E-5
MEAN_MOTION_DDOT = 0

CCSDS_OMM_VERS = 2.0
CREATION_DATE  = 
ORIGINATOR     = 

OBJECT_NAME    = QPS-SAR-14 (YACHIHOKO-I)
OBJECT_ID      = 2025-252A
CENTER_NAME    = EARTH
REF_FRAME      = TEME
TIME_SYSTEM    = UTC
MEAN_ELEMENT_THEORY = SGP/SGP4

EPOCH          = 2025-11-26T06:18:13.520736
MEAN_MOTION    = 14.97445506
ECCENTRICITY   = .00074599
INCLINATION    = 42.0032
RA_OF_ASC_NODE = 165.6967
ARG_OF_PERICENTER = 33.4480
MEAN_ANOMALY   = 326.6815

EPHEMERIS_TYPE = 0
CLASSIFICATION_TYPE = U
NORAD_CAT_ID   = 66316
ELEMENT_SET_NO = 999
REV_AT_EPOCH   = 306
BSTAR          = .46997246E-3
MEAN_MOTION_DOT = .5386E-4
MEAN_MOTION_DDOT = 0

